      2.10          N: GNSS NAV DATA                        RINEX VERSION / TYPE
fic2rin                                 01/03/2020 00:18:03 PGM / RUN BY / DATE
                                                            END OF HEADER
21 20  1  2  8  0  0.0-6.180210039020e-05 5.684341886081e-12 0.000000000000e+00
    5.000000000000e+01 2.125000000000e+00 5.135928217740e-09 8.980041540032e-01
   -2.477318048477e-07 2.474907576106e-02 5.872920155525e-06 5.153586385727e+03
    3.744000000000e+05-2.663582563400e-07-6.497759129521e-01-4.302710294724e-07
    9.514133503221e-01 2.695625000000e+02-1.383010017884e+00-8.800366570592e-09
    1.953652806053e-10 1.000000000000e+00 2.086000000000e+03 0.000000000000e+00
    2.400000000000e+00 0.000000000000e+00-1.024454832077e-08 5.000000000000e+01
    3.672300000000e+05 4.000000000000e+00
29 20  1  2  8  0  0.0 2.946238964796e-06-9.663381206337e-12 0.000000000000e+00
    7.100000000000e+01 3.256250000000e+01 3.920877606005e-09-1.130193647342e+00
    1.601874828339e-06 1.023967866786e-03 8.661299943924e-06 5.153650716782e+03
    3.744000000000e+05-3.725290298462e-09-1.566286900833e+00 5.587935447693e-09
    9.856000400721e-01 2.299375000000e+02 1.996082844977e+00-7.809611015932e-09
    8.500354073867e-11 1.000000000000e+00 2.086000000000e+03 0.000000000000e+00
    2.400000000000e+00 0.000000000000e+00-9.778887033463e-09 7.100000000000e+01
    3.672300000000e+05 4.000000000000e+00
20 20  1  2  8  0  0.0 5.277385935187e-04 0.000000000000e+00 0.000000000000e+00
    1.020000000000e+02-5.743750000000e+01 5.374152426448e-09 2.283387788655e+00
   -2.836808562279e-06 5.094727384858e-03 6.087124347687e-06 5.153624269485e+03
    3.744000000000e+05 1.024454832077e-07 3.323816117026e-01 1.136213541031e-07
    9.328735437333e-01 2.467812500000e+02 2.545057304927e+00-8.543927317439e-09
   -1.750072897561e-10 1.000000000000e+00 2.086000000000e+03 0.000000000000e+00
    3.400000000000e+00 0.000000000000e+00-8.381903171539e-09 1.020000000000e+02
    3.672300000000e+05 4.000000000000e+00
 4 20  1  2  8  0  0.0-2.854643389583e-05-5.229594535194e-12 0.000000000000e+00
    2.060000000000e+02-1.046875000000e+01 4.435184743247e-09-2.250311493226e+00
   -5.997717380524e-07 4.452895373106e-04 9.696930646896e-06 5.153731864929e+03
    3.744000000000e+05-4.656612873077e-08 1.539634247969e+00 3.911554813385e-08
    9.595133507139e-01 1.925937500000e+02-2.716630909073e+00-7.858184467782e-09
    5.214502919263e-11 1.000000000000e+00 2.086000000000e+03 0.000000000000e+00
    2.400000000000e+00 6.300000000000e+01-4.190951585770e-09 9.740000000000e+02
    3.672600000000e+05 4.000000000000e+00
24 20  1  2  8  0  0.0-7.022172212601e-06-4.547473508865e-13 0.000000000000e+00
    5.700000000000e+01 4.300000000000e+01 5.064139513166e-09 2.983499346540e+00
    2.177432179451e-06 9.367140824907e-03 6.856396794319e-06 5.153665285110e+03
    3.744000000000e+05 1.490116119385e-08 2.498282148051e+00-8.195638656616e-08
    9.372018750657e-01 2.353750000000e+02 6.433951455903e-01-8.235343035093e-09
    1.350056235261e-10 1.000000000000e+00 2.086000000000e+03 0.000000000000e+00
    3.400000000000e+00 0.000000000000e+00 2.793967723846e-09 5.700000000000e+01
    3.673800000000e+05 4.000000000000e+00
20 20  1  2  7 59 44.0 5.277395248413e-04 0.000000000000e+00 0.000000000000e+00
    2.000000000000e+00-5.743750000000e+01 5.374152426448e-09 2.281053939853e+00
   -2.836808562279e-06 5.094726104289e-03 6.087124347687e-06 5.153624267578e+03
    3.743840000000e+05 1.024454832077e-07 3.323817506798e-01 1.136213541031e-07
    9.328735291041e-01 2.467812500000e+02 2.545057350277e+00-8.543927317439e-09
   -1.746501320219e-10 1.000000000000e+00 2.086000000000e+03 0.000000000000e+00
    2.400000000000e+00 0.000000000000e+00-8.381903171539e-09 2.000000000000e+00
    3.687000000000e+05 4.000000000000e+00
12 20  1  2  8  0  0.0 1.667449250817e-04-4.092726157978e-12 0.000000000000e+00
    3.400000000000e+01 7.843750000000e+00 4.098384999900e-09 1.439823079325e+00
    3.334134817123e-07 7.766851224005e-03 7.422640919685e-06 5.153771959305e+03
    3.744000000000e+05-1.825392246246e-07-2.611778118036e+00 0.000000000000e+00
    9.803984022373e-01 2.460937500000e+02 1.095292190448e+00-7.958188633357e-09
   -2.121516941125e-10 1.000000000000e+00 2.086000000000e+03 0.000000000000e+00
    2.400000000000e+00 0.000000000000e+00-1.257285475731e-08 3.400000000000e+01
    3.696300000000e+05 4.000000000000e+00
17 20  1  2  7 59 44.0 1.914757303894e-04 6.707523425575e-12 0.000000000000e+00
    1.900000000000e+01 2.706250000000e+01 3.968379584653e-09-1.437621564629e+00
    1.730397343636e-06 1.346216513775e-02 7.744878530502e-06 5.153631050110e+03
    3.743840000000e+05 1.676380634308e-08-1.577795994816e+00 3.427267074585e-07
    9.840205815498e-01 2.444375000000e+02-1.668856321056e+00-7.822468694363e-09
    6.643133856047e-11 1.000000000000e+00 2.086000000000e+03 0.000000000000e+00
    2.400000000000e+00 0.000000000000e+00-1.117587089539e-08 1.900000000000e+01
    3.697500000000e+05 4.000000000000e+00
16 20  1  2  7 59 44.0-1.092925667763e-04-3.979039320257e-12 0.000000000000e+00
    1.200000000000e+01 2.562500000000e+00 4.174816755018e-09-4.137285232365e-01
    3.129243850708e-07 1.119059009943e-02 6.856396794319e-06 5.153689950943e+03
    3.743840000000e+05 1.117587089539e-07-2.592895472207e+00 1.247972249985e-07
    9.806730285337e-01 2.564062500000e+02 5.847993897333e-01-8.093551414617e-09
   -2.150089559860e-10 1.000000000000e+00 2.086000000000e+03 0.000000000000e+00
    2.400000000000e+00 0.000000000000e+00-1.024454832077e-08 1.200000000000e+01
    3.699300000000e+05 4.000000000000e+00
 4 20  1  2  8 44 32.0-2.856086939573e-05-5.229594535194e-12 0.000000000000e+00
    2.070000000000e+02-9.625000000000e+00 4.401254758498e-09-1.858756779195e+00
   -5.569308996201e-07 4.448632244021e-04 1.004338264465e-05 5.153733543396e+03
    3.770720000000e+05-5.774199962616e-08 1.539613420405e+00-2.235174179077e-08
    9.595134443406e-01 1.853125000000e+02-2.718465563414e+00-7.855327205909e-09
    1.500062483624e-11 1.000000000000e+00 2.086000000000e+03 0.000000000000e+00
    2.400000000000e+00 6.300000000000e+01-4.190951585770e-09 9.750000000000e+02
    3.699600000000e+05 4.000000000000e+00
32 20  1  2  8  0  0.0 1.732818782330e-04 1.091393642128e-11 0.000000000000e+00
    7.200000000000e+01-1.253125000000e+01 4.601977405117e-09-5.658734473804e-01
   -7.431954145432e-07 3.390620229766e-03 1.038797199726e-05 5.153665977478e+03
    3.744000000000e+05 6.891787052155e-08 1.500589782205e+00 8.009374141693e-08
    9.563756401299e-01 1.779062500000e+02-2.550363163971e+00-8.048906697843e-09
   -3.392998474863e-11 1.000000000000e+00 2.086000000000e+03 0.000000000000e+00
    2.400000000000e+00 0.000000000000e+00 4.656612873077e-10 7.200000000000e+01
    3.707100000000e+05 4.000000000000e+00
22 20  1  2  8  0  0.0-7.803514599800e-04-1.591615728103e-12 0.000000000000e+00
    1.900000000000e+01-5.490625000000e+01 5.315935715775e-09-2.288246695505e+00
   -2.793967723846e-06 6.948126130737e-03 5.740672349930e-06 5.153609336853e+03
    3.744000000000e+05 8.381903171539e-08 3.803135476429e-01 1.303851604462e-07
    9.295566227588e-01 2.488750000000e+02-1.247767055283e+00-8.395706857747e-09
   -9.821837690392e-11 1.000000000000e+00 2.086000000000e+03 0.000000000000e+00
    2.400000000000e+00 0.000000000000e+00-1.816079020500e-08 1.900000000000e+01
    3.707400000000e+05 4.000000000000e+00
19 20  1  2  7 59 44.0-2.180724404752e-04 5.115907697473e-12 0.000000000000e+00
    1.900000000000e+01 1.865625000000e+01 4.029096399466e-09 1.280341075345e+00
    8.549541234970e-07 9.155306848697e-03 7.852911949158e-06 5.153669229507e+03
    3.743840000000e+05-1.303851604462e-07-1.531915563026e+00-1.862645149231e-07
    9.820633727100e-01 2.422187500000e+02 1.544992153250e+00-7.907472235101e-09
    8.536069847286e-11 1.000000000000e+00 2.086000000000e+03 0.000000000000e+00
    2.400000000000e+00 0.000000000000e+00-1.536682248116e-08 1.900000000000e+01
    3.736200000000e+05 4.000000000000e+00
10 20  1  2  7 59 44.0-1.946338452399e-04-1.386979420204e-11 0.000000000000e+00
    1.000000000000e+00-5.975000000000e+01 4.638764651739e-09 7.321718420789e-01
   -2.982094883919e-06 5.261645768769e-03 6.599351763725e-06 5.153664300919e+03
    3.743840000000e+05 2.235174179077e-08 4.582916499610e-01 6.332993507385e-08
    9.647116735763e-01 2.523125000000e+02-2.713796546256e+00-8.223913987599e-09
   -2.346526313668e-10 1.000000000000e+00 2.086000000000e+03 0.000000000000e+00
    2.400000000000e+00 0.000000000000e+00 1.862645149231e-09 1.000000000000e+00
    3.743400000000e+05 4.000000000000e+00
16 20  1  2  9 59 44.0-1.093214377761e-04-3.979039320257e-12 0.000000000000e+00
    1.300000000000e+01 9.625000000000e+00 4.081955744127e-09 6.364136309194e-01
    6.295740604401e-07 1.119153900072e-02 6.979331374168e-06 5.153691837311e+03
    3.815840000000e+05-5.774199962616e-08-2.592952966350e+00 1.974403858185e-07
    9.806715290427e-01 2.549687500000e+02 5.848247655103e-01-8.002119034663e-09
   -3.132273328900e-10 1.000000000000e+00 2.086000000000e+03 0.000000000000e+00
    2.400000000000e+00 0.000000000000e+00-1.024454832077e-08 1.300000000000e+01
    3.744000000000e+05 4.000000000000e+00
10 20  1  2  9 59 44.0-1.947334967554e-04-1.386979420204e-11 0.000000000000e+00
    1.300000000000e+01-5.956250000000e+01 4.639121809473e-09 1.782161138851e+00
   -3.006309270859e-06 5.262129008770e-03 7.258728146553e-06 5.153666458130e+03
    3.815840000000e+05-1.098960638046e-07 4.582319160900e-01 1.583248376846e-07
    9.647103642646e-01 2.440000000000e+02-2.713598771435e+00-8.181769374964e-09
   -1.192906832215e-10 1.000000000000e+00 2.086000000000e+03 0.000000000000e+00
    2.400000000000e+00 0.000000000000e+00 1.862645149231e-09 1.300000000000e+01
    3.744000000000e+05 4.000000000000e+00
